     3.01           N: GNSS NAV DATA    R: GLONASS          RINEX VERSION / TYPE
LEICA GEO OFFICE 8.3                    20250417 115625 UTC PGM / RUN BY / DATE
    18    18  2185     7                                    LEAP SECONDS
                                                            END OF HEADER
R01 2023 06 27 11 15 02 6.023980677128D-05 0.000000000000D+00 2.133180000000D+05
     2.194251562500D+04-5.018920898438D-01 0.000000000000D+00 0.000000000000D+00
     1.218268798828D+04-3.923139572144D-01 0.000000000000D+00 1.000000000000D+00
     4.516828613281D+03 3.499257087708D+00 0.000000000000D+00 0.000000000000D+00
R01 2023 06 27 11 45 02 6.024073809385D-05 0.000000000000D+00 2.151180000000D+05
     2.027692822266D+04-1.346091270447D+00 0.000000000000D+00 0.000000000000D+00
     1.130055322266D+04-5.458002090454D-01 0.000000000000D+00 1.000000000000D+00
     1.055925537109D+04 3.170925140381D+00 0.000000000000D+00 0.000000000000D+00
R01 2023 06 27 12 15 02 6.024166941643D-05 0.000000000000D+00 2.169180000000D+05
     1.714111621094D+04-2.116383552551D+00 0.000000000000D+00 0.000000000000D+00
     1.036654541016D+04-4.528989791870D-01 0.000000000000D+00 1.000000000000D+00
     1.578462695313D+04 2.597345352173D+00-9.313225746155D-10 0.000000000000D+00
R02 2023 06 27 11 15 02-2.266652882099D-05 0.000000000000D+00 2.133180000000D+05
     2.143657714844D+04 1.717274665833D+00 0.000000000000D+00 0.000000000000D+00
     3.542513183594D+03 6.715135574341D-01-9.313225746155D-10-4.000000000000D+00
    -1.337052294922D+04 2.915427207947D+00 1.862645149231D-09 0.000000000000D+00
R02 2023 06 27 11 45 02-2.266652882099D-05 0.000000000000D+00 2.151180000000D+05
     2.396685302734D+04 1.058132171631D+00 0.000000000000D+00 0.000000000000D+00
     4.276229980469D+03 1.685867309570D-01-9.313225746155D-10-4.000000000000D+00
    -7.674051269531D+03 3.372811317444D+00 1.862645149231D-09 0.000000000000D+00
R02 2023 06 27 12 15 02-2.266559749842D-05 0.000000000000D+00 2.169180000000D+05
     2.514295703125D+04 2.284440994263D-01 0.000000000000D+00 0.000000000000D+00
     4.262137695313D+03-1.477041244507D-01 0.000000000000D+00-4.000000000000D+00
    -1.385274902344D+03 3.569419860840D+00 9.313225746155D-10 0.000000000000D+00
R07 2023 06 27 11 45 02 5.893874913454D-05 9.094947017729D-13 2.151180000000D+05
    -1.287959619141D+04-2.763740539551D+00 9.313225746155D-10 0.000000000000D+00
     6.258453613281D+03-8.331556320190D-01 0.000000000000D+00 5.000000000000D+00
     2.113801269531D+04-1.444289207458D+00-2.793967723846D-09 0.000000000000D+00
R08 2023 06 27 11 45 02-7.141474634409D-05 0.000000000000D+00 2.151180000000D+05
     4.138060058594D+03-2.834042549133D+00 0.000000000000D+00 0.000000000000D+00
     1.228273876953D+04-9.886884689331D-01 0.000000000000D+00 6.000000000000D+00
     2.203448730469D+04 1.083642959595D+00-1.862645149231D-09 0.000000000000D+00
R08 2023 06 27 12 15 02-7.141381502151D-05 0.000000000000D+00 2.169180000000D+05
    -1.239273437500D+03-3.093232154846D+00 0.000000000000D+00 0.000000000000D+00
     1.084603320313D+04-5.882806777954D-01 0.000000000000D+00 6.000000000000D+00
     2.311385107422D+04 1.078891754150D-01-2.793967723846D-09 0.000000000000D+00
R14 2023 06 27 11 15 02 2.486072480679D-05 0.000000000000D+00 2.133180000000D+05
     1.778207714844D+04 7.353630065918D-01 9.313225746155D-10 0.000000000000D+00
    -1.679028662109D+04-6.704149246216D-01-1.862645149231D-09-7.000000000000D+00
     7.226410644531D+03-3.376736640930D+00 0.000000000000D+00 0.000000000000D+00
R14 2023 06 27 11 45 02 2.486072480679D-05 0.000000000000D+00 2.151180000000D+05
     1.843205126953D+04 4.474639892578D-03 9.313225746155D-10 0.000000000000D+00
    -1.759163574219D+04-1.833095550537D-01-1.862645149231D-09-7.000000000000D+00
     9.472348632813D+02-3.554782867432D+00 9.313225746155D-10 0.000000000000D+00
R14 2023 06 27 12 15 02 2.486072480679D-05 0.000000000000D+00 2.169180000000D+05
     1.789014306641D+04-5.741252899170D-01 0.000000000000D+00 0.000000000000D+00
    -1.733887255859D+04 4.881839752197D-01-1.862645149231D-09-7.000000000000D+00
    -5.405241699219D+03-3.457606315613D+00 1.862645149231D-09 0.000000000000D+00
R15 2023 06 27 11 15 02 8.827727288008D-05 0.000000000000D+00 2.133180000000D+05
     3.974359863281D+03 2.260845184326D+00 1.862645149231D-09 0.000000000000D+00
    -1.472287792969D+04-1.646903991699D+00-1.862645149231D-09 0.000000000000D+00
     2.046868408203D+04-1.626170158386D+00-9.313225746155D-10 0.000000000000D+00
R15 2023 06 27 11 45 02 8.827727288008D-05 0.000000000000D+00 2.151180000000D+05
     7.493634277344D+03 1.631066322327D+00 9.313225746155D-10 0.000000000000D+00
    -1.769920703125D+04-1.615723609924D+00-1.862645149231D-09 0.000000000000D+00
     1.678954345703D+04-2.435350418091D+00 0.000000000000D+00 0.000000000000D+00
R15 2023 06 27 12 15 02 8.828192949295D-05 0.000000000000D+00 2.169180000000D+05
     9.813230468750D+03 9.464960098267D-01 9.313225746155D-10 0.000000000000D+00
    -2.037549072266D+04-1.312756538391D+00-2.793967723846D-09 0.000000000000D+00
     1.181423876953D+04-3.056987762451D+00 0.000000000000D+00 0.000000000000D+00
R16 2023 06 27 11 15 02 1.606997102499D-05 9.094947017729D-13 2.133180000000D+05
    -1.233138232422D+04 2.488859176636D+00 9.313225746155D-10 0.000000000000D+00
    -3.990654785156D+03-1.688230514526D+00 0.000000000000D+00-1.000000000000D+00
     2.199066162109D+04 1.086532592773D+00-1.862645149231D-09 0.000000000000D+00
R16 2023 06 27 11 45 02 1.607090234756D-05 9.094947017729D-13 2.151180000000D+05
    -7.960891113281D+03 2.323135375977D+00 9.313225746155D-10 0.000000000000D+00
    -7.456312500000D+03-2.135775566101D+00-9.313225746155D-10-1.000000000000D+00
     2.307286181641D+04 1.080331802368D-01-1.862645149231D-09 0.000000000000D+00
R16 2023 06 27 12 15 02 1.607183367014D-05 9.094947017729D-13 2.169180000000D+05
    -4.107759277344D+03 1.925830841064D+00 9.313225746155D-10 0.000000000000D+00
    -1.155659814453D+04-2.379605293274D+00-1.862645149231D-09-1.000000000000D+00
     2.237419677734D+04-8.794097900391D-01-1.862645149231D-09 0.000000000000D+00
R23 2023 06 27 11 45 02-8.745957165956D-05-9.094947017729D-13 2.151180000000D+05
     9.712345703125D+03 5.345506668091D-01 0.000000000000D+00 0.000000000000D+00
     1.947461669922D+04 1.757338523865D+00 9.313225746155D-10 3.000000000000D+00
     1.329245849609D+04-2.961806297302D+00-9.313225746155D-10 0.000000000000D+00
R23 2023 06 27 12 15 02-8.746236562729D-05-9.094947017729D-13 2.169180000000D+05
     1.072006982422D+04 5.422773361206D-01-9.313225746155D-10 0.000000000000D+00
     2.188714892578D+04 9.093856811523D-01 1.862645149231D-09 3.000000000000D+00
     7.515837890625D+03-3.414926528931D+00-9.313225746155D-10 0.000000000000D+00
R24 2023 06 27 11 15 02-1.390278339386D-05-1.818989403546D-12 2.133180000000D+05
     1.067256933594D+04 1.929159164429D-01 9.313225746155D-10 0.000000000000D+00
    -2.553369628906D+03 3.146502494812D+00-9.313225746155D-10 2.000000000000D+00
     2.303677734375D+04 2.578353881836D-01-9.313225746155D-10 0.000000000000D+00
R24 2023 06 27 11 45 02-1.390650868416D-05-1.818989403546D-12 2.151180000000D+05
     1.143148339844D+04 6.407842636108D-01 9.313225746155D-10 0.000000000000D+00
     3.048671386719D+03 3.026884078979D+00-9.313225746155D-10 2.000000000000D+00
     2.260534130859D+04-7.341566085815D-01-9.313225746155D-10 0.000000000000D+00
R24 2023 06 27 12 15 02-1.390930265188D-05-1.818989403546D-12 2.169180000000D+05
     1.291392529297D+04 9.801502227783D-01 0.000000000000D+00 0.000000000000D+00
     8.170182617188D+03 2.620007514954D+00 0.000000000000D+00 2.000000000000D+00
     2.042769921875D+04-1.669815063477D+00-9.313225746155D-10 0.000000000000D+00
